[{"OBJECT_NAME":"SHIJIAN-6 03B (SJ-6 03B)","OBJECT_ID":"2008-053B","EPOCH":"2026-03-09T23:28:00.216192","MEAN_MOTION":15.03879314,"ECCENTRICITY":0.00200774,"INCLINATION":97.8673,"RA_OF_ASC_NODE":87.2117,"ARG_OF_PERICENTER":21.0315,"MEAN_ANOMALY":339.1731,"EPHEMERIS_TYPE":0,"CLASSIFICATION_TYPE":"U","NORAD_CAT_ID":33409,"ELEMENT_SET_NO":999,"REV_AT_EPOCH":94783,"BSTAR":0.00032650966,"MEAN_MOTION_DOT":4.452e-5,"MEAN_MOTION_DDOT":0},{"OBJECT_NAME":"STARLINK-4445","OBJECT_ID":"2022-099K","EPOCH":"2026-03-09T21:44:08.399328","MEAN_MOTION":15.01283384,"ECCENTRICITY":0.00043614,"INCLINATION":97.6009,"RA_OF_ASC_NODE":190.4188,"ARG_OF_PERICENTER":192.3869,"MEAN_ANOMALY":167.7248,"EPHEMERIS_TYPE":0,"CLASSIFICATION_TYPE":"U","NORAD_CAT_ID":53474,"ELEMENT_SET_NO":999,"REV_AT_EPOCH":19601,"BSTAR":0.00029234568,"MEAN_MOTION_DOT":3.701e-5,"MEAN_MOTION_DDOT":0}]
